{
  "type": "FeatureCollection",
  "features": [
    {
      "type": "Feature",
      "properties": {
        "norad_id": 15362,
        "name": "NOVA 3",
        "group": "nnss",
        "lat": 73.21225716102258,
        "lon": 80.2771643545374,
        "alt_km": 1182.6824323428018,
        "timestamp": "2025-12-25T03:55:56.626271+00:00",
        "meta_object_name": "NOVA 3",
        "meta_object_id": "1984-110A",
        "meta_epoch": "2025-12-24T17:15:40.666752",
        "meta_mean_motion": 13.23046037,
        "meta_eccentricity": 0.0029874,
        "meta_inclination": 90.1217,
        "meta_ra_of_asc_node": 80.6756,
        "meta_arg_of_pericenter": 297.3866,
        "meta_mean_anomaly": 179.0949,
        "meta_ephemeris_type": 0,
        "meta_classification_type": "U",
        "meta_norad_cat_id": 15362,
        "meta_element_set_no": 999,
        "meta_rev_at_epoch": 98857,
        "meta_bstar": 0.0001471,
        "meta_mean_motion_dot": 7e-07,
        "meta_mean_motion_ddot": 0,
        "tle_line1": "1 15362U 84110A   25358.71922068  .00000070  00000+0  14710-3 0  9991",
        "tle_line2": "2 15362  90.1217  80.6756 0029874 297.3866 179.0949 13.23046037988577"
      },
      "geometry": {
        "type": "Point",
        "coordinates": [
          80.2771643545374,
          73.21225716102258
        ]
      }
    },
    {
      "type": "Feature",
      "properties": {
        "norad_id": 15935,
        "name": "OSCAR 30",
        "group": "nnss",
        "lat": 14.752202637903872,
        "lon": 100.00661180574706,
        "alt_km": 1019.4040394343056,
        "timestamp": "2025-12-25T03:55:56.626283+00:00",
        "meta_object_name": "OSCAR 30",
        "meta_object_id": "1985-066A",
        "meta_epoch": "2025-12-24T17:39:41.830848",
        "meta_mean_motion": 13.36080379,
        "meta_eccentricity": 0.0168886,
        "meta_inclination": 90.1653,
        "meta_ra_of_asc_node": 100.0432,
        "meta_arg_of_pericenter": 50.3743,
        "meta_mean_anomaly": 68.3865,
        "meta_ephemeris_type": 0,
        "meta_classification_type": "U",
        "meta_norad_cat_id": 15935,
        "meta_element_set_no": 999,
        "meta_rev_at_epoch": 96613,
        "meta_bstar": 0.00021298,
        "meta_mean_motion_dot": 1.28e-06,
        "meta_mean_motion_ddot": 0,
        "tle_line1": "1 15935U 85066A   25358.73590082  .00000128  00000+0  21298-3 0  9990",
        "tle_line2": "2 15935  90.1653 100.0432 0168886  50.3743  68.3865 13.36080379966139"
      },
      "geometry": {
        "type": "Point",
        "coordinates": [
          100.00661180574706,
          14.752202637903872
        ]
      }
    },
    {
      "type": "Feature",
      "properties": {
        "norad_id": 15936,
        "name": "OSCAR 24",
        "group": "nnss",
        "lat": 85.86869440168017,
        "lon": 90.04334422680435,
        "alt_km": 1006.2224423579155,
        "timestamp": "2025-12-25T03:55:56.626308+00:00",
        "meta_object_name": "OSCAR 24",
        "meta_object_id": "1985-066B",
        "meta_epoch": "2025-12-24T20:54:20.922336",
        "meta_mean_motion": 13.35937478,
        "meta_eccentricity": 0.0170066,
        "meta_inclination": 90.1791,
        "meta_ra_of_asc_node": 92.52,
        "meta_arg_of_pericenter": 56.4546,
        "meta_mean_anomaly": 61.219,
        "meta_ephemeris_type": 0,
        "meta_classification_type": "U",
        "meta_norad_cat_id": 15936,
        "meta_element_set_no": 999,
        "meta_rev_at_epoch": 96805,
        "meta_bstar": 0.0001545,
        "meta_mean_motion_dot": 9.5e-07,
        "meta_mean_motion_ddot": 0,
        "tle_line1": "1 15936U 85066B   25358.87107549  .00000095  00000+0  15450-3 0  9994",
        "tle_line2": "2 15936  90.1791  92.5200 0170066  56.4546  61.2190 13.35937478968058"
      },
      "geometry": {
        "type": "Point",
        "coordinates": [
          90.04334422680435,
          85.86869440168017
        ]
      }
    },
    {
      "type": "Feature",
      "properties": {
        "norad_id": 17070,
        "name": "POLAR BEAR",
        "group": "nnss",
        "lat": -57.24579343696514,
        "lon": 3.871820790355507,
        "alt_km": 1015.1633498897709,
        "timestamp": "2025-12-25T03:55:56.626327+00:00",
        "meta_object_name": "POLAR BEAR",
        "meta_object_id": "1986-088A",
        "meta_epoch": "2025-12-24T18:06:18.140832",
        "meta_mean_motion": 13.75253166,
        "meta_eccentricity": 0.0041286,
        "meta_inclination": 89.617,
        "meta_ra_of_asc_node": 183.2926,
        "meta_arg_of_pericenter": 84.7032,
        "meta_mean_anomaly": 286.2362,
        "meta_ephemeris_type": 0,
        "meta_classification_type": "U",
        "meta_norad_cat_id": 17070,
        "meta_element_set_no": 999,
        "meta_rev_at_epoch": 96144,
        "meta_bstar": 8.9455e-05,
        "meta_mean_motion_dot": 9.8e-07,
        "meta_mean_motion_ddot": 0,
        "tle_line1": "1 17070U 86088A   25358.75437663  .00000098  00000+0  89455-4 0  9990",
        "tle_line2": "2 17070  89.6170 183.2926 0041286  84.7032 286.2362 13.75253166961446"
      },
      "geometry": {
        "type": "Point",
        "coordinates": [
          3.871820790355507,
          -57.24579343696514
        ]
      }
    },
    {
      "type": "Feature",
      "properties": {
        "norad_id": 18361,
        "name": "OSCAR 27",
        "group": "nnss",
        "lat": -39.827642407249634,
        "lon": -100.57498806160463,
        "alt_km": 1031.2917932458859,
        "timestamp": "2025-12-25T03:55:56.626339+00:00",
        "meta_object_name": "OSCAR 27",
        "meta_object_id": "1987-080A",
        "meta_epoch": "2025-12-24T17:55:02.714880",
        "meta_mean_motion": 13.44909135,
        "meta_eccentricity": 0.0103928,
        "meta_inclination": 90.3736,
        "meta_ra_of_asc_node": 79.7212,
        "meta_arg_of_pericenter": 189.2422,
        "meta_mean_anomaly": 170.6816,
        "meta_ephemeris_type": 0,
        "meta_classification_type": "U",
        "meta_norad_cat_id": 18361,
        "meta_element_set_no": 999,
        "meta_rev_at_epoch": 87718,
        "meta_bstar": 0.00017485,
        "meta_mean_motion_dot": 1.14e-06,
        "meta_mean_motion_ddot": 0,
        "tle_line1": "1 18361U 87080A   25358.74655920  .00000114  00000+0  17485-3 0  9996",
        "tle_line2": "2 18361  90.3736  79.7212 0103928 189.2422 170.6816 13.44909135877187"
      },
      "geometry": {
        "type": "Point",
        "coordinates": [
          -100.57498806160463,
          -39.827642407249634
        ]
      }
    },
    {
      "type": "Feature",
      "properties": {
        "norad_id": 18362,
        "name": "OSCAR 29",
        "group": "nnss",
        "lat": -30.927829026425666,
        "lon": -100.02798645364811,
        "alt_km": 1020.5008266575824,
        "timestamp": "2025-12-25T03:55:56.626350+00:00",
        "meta_object_name": "OSCAR 29",
        "meta_object_id": "1987-080B",
        "meta_epoch": "2025-12-24T18:31:37.261920",
        "meta_mean_motion": 13.44450686,
        "meta_eccentricity": 0.0104734,
        "meta_inclination": 90.3749,
        "meta_ra_of_asc_node": 80.1821,
        "meta_arg_of_pericenter": 212.3351,
        "meta_mean_anomaly": 262.8592,
        "meta_ephemeris_type": 0,
        "meta_classification_type": "U",
        "meta_norad_cat_id": 18362,
        "meta_element_set_no": 999,
        "meta_rev_at_epoch": 87671,
        "meta_bstar": 0.0001699,
        "meta_mean_motion_dot": 1.1e-06,
        "meta_mean_motion_ddot": 0,
        "tle_line1": "1 18362U 87080B   25358.77195905  .00000110  00000+0  16990-3 0  9998",
        "tle_line2": "2 18362  90.3749  80.1821 0104734 212.3351 262.8592 13.44450686876714"
      },
      "geometry": {
        "type": "Point",
        "coordinates": [
          -100.02798645364811,
          -30.927829026425666
        ]
      }
    },
    {
      "type": "Feature",
      "properties": {
        "norad_id": 19070,
        "name": "OSCAR 23",
        "group": "nnss",
        "lat": -37.97872863998139,
        "lon": 17.027447013280092,
        "alt_km": 1304.7979486669146,
        "timestamp": "2025-12-25T03:55:56.626360+00:00",
        "meta_object_name": "OSCAR 23",
        "meta_object_id": "1988-033A",
        "meta_epoch": "2025-12-24T19:56:45.202272",
        "meta_mean_motion": 13.27789006,
        "meta_eccentricity": 0.019047,
        "meta_inclination": 90.3203,
        "meta_ra_of_asc_node": 16.7669,
        "meta_arg_of_pericenter": 146.3829,
        "meta_mean_anomaly": 25.8694,
        "meta_ephemeris_type": 0,
        "meta_classification_type": "U",
        "meta_norad_cat_id": 19070,
        "meta_element_set_no": 999,
        "meta_rev_at_epoch": 82413,
        "meta_bstar": 0.00010964,
        "meta_mean_motion_dot": 6.4e-07,
        "meta_mean_motion_ddot": 0,
        "tle_line1": "1 19070U 88033A   25358.83107873  .00000064  00000+0  10964-3 0  9991",
        "tle_line2": "2 19070  90.3203  16.7669 0190470 146.3829  25.8694 13.27789006824130"
      },
      "geometry": {
        "type": "Point",
        "coordinates": [
          17.027447013280092,
          -37.97872863998139
        ]
      }
    }
  ]
}